GLOBALSTAR M035 [-]     
1 25851U 99037A   24019.55206888 -.00000027  00000+0  13750-2 0  9994
2 25851  51.9949 122.6343 0013539 223.1832 229.6028 11.04528185 39391
GLOBALSTAR M032 [-]     
1 25852U 99037B   24019.29036908 -.00000029  00000+0  12137-2 0  9990
2 25852  51.9990 343.9471 0009515  19.3184 340.7975 11.19049947 77143
GLOBALSTAR M051 [-]     
1 25853U 99037C   24018.77796201 -.00000049  00000+0  56792-3 0  9990
2 25853  51.9754 204.2403 0002132  44.2297 315.8683 11.42195937 73496
GLOBALSTAR M030 [-]     
1 25854U 99037D   24019.37243180 -.00000089  00000+0 -29074-3 0  9999
2 25854  51.9897  41.6442 0004312 200.4338 159.6307 11.55086814 90555
GLOBALSTAR M048 [-]     
1 25872U 99041A   24019.54785288 -.00000063  00000+0  19129-3 0  9994
2 25872  51.9368 117.5144 0012853  17.9267  76.9619 11.33842617 66604
GLOBALSTAR M026 [-]     
1 25873U 99041B   24019.03745071 -.00000055  00000+0  34871-3 0  9997
2 25873  51.9982 247.1754 0002119  99.2538  50.6153 11.06835316 91442
GLOBALSTAR M043 [-]     
1 25874U 99041C   24019.00217127 -.00000049  00000+0  57647-3 0  9990
2 25874  51.9357 205.9216 0013454 150.2064  21.2227 11.25674227 64854
GLOBALSTAR M028 [-]     
1 25875U 99041D   24019.11480354 -.00000063  00000+0  24275-3 0  9994
2 25875  51.9632 288.8769 0064239  33.1993 327.2874 12.50548418125734
